API VERSION: 1.2
API SOURCE: NASA/JPL Horizons API



*******************************************************************************
Ephemeris / API_USER Mon Apr 13 12:00:26 2026 Pasadena, USA      / Horizons
*******************************************************************************
Target body name: Venus (299)                     {source: DE441}
Center body name: Sun (10)                        {source: DE441}
Center-site name: BODY CENTER
*******************************************************************************
Start time      : A.D. 2200-Jan-01 00:00:00.0000 TDB
Stop  time      : A.D. 2299-Dec-18 00:00:00.0000 TDB
Step-size       : 43200 minutes
*******************************************************************************
Center geodetic : 0.0, 0.0, 0.0                   {E-lon(deg),Lat(deg),Alt(km)}
Center cylindric: 0.0, 0.0, 0.0                   {E-lon(deg),Dxy(km),Dz(km)}
Center radii    : 695700.0, 695700.0, 695700.0 km {Equator_a, b, pole_c}
Output units    : AU-D
Calendar mode   : Mixed Julian/Gregorian
Output type     : GEOMETRIC cartesian states
Output format   : 3 (position, velocity, LT, range, range-rate)
Reference frame : Ecliptic of J2000.0
*******************************************************************************
            JDTDB,            Calendar Date (TDB),                      X,                      Y,                      Z,                     VX,                     VY,                     VZ,                     LT,                     RG,                     RR,
**************************************************************************************************************************************************************************************************************************************************************************
$$SOE
2556093.500000000, A.D. 2286-Mar-31 00:00:00.0000,  1.591878634489704E-01, -7.096008641560377E-01, -1.940970497201156E-02,  1.960274826782015E-02,  4.360314230480694E-03, -1.063734687752989E-03,  4.201668345367712E-03,  7.274963222776758E-01,  6.472011411919393E-05,
2556123.500000000, A.D. 2286-Apr-30 00:00:00.0000,  6.300369249408835E-01, -3.620873675062790E-01, -4.144994567438903E-02,  9.961610754320284E-03,  1.745490852044475E-02, -3.202318738630202E-04,  4.203735869978174E-03,  7.278543030668990E-01, -4.224152445948863E-05,
2556153.500000000, A.D. 2286-May-30 00:00:00.0000,  6.896600102174323E-01,  2.213859279453648E-01, -3.644112403226539E-02, -6.248531591999553E-03,  1.917013095296230E-02,  6.363348522156678E-04,  4.188627185977252E-03,  7.252383155253685E-01, -1.221031585157434E-04,
2556183.500000000, A.D. 2286-Jun-29 00:00:00.0000,  2.952490259963372E-01,  6.581143108859275E-01, -7.455889916021721E-03, -1.851793064131840E-02,  8.187512747627381E-03,  1.182794542594467E-03,  4.166154941287191E-03,  7.213473669731421E-01, -1.218559399670927E-04,
2556213.500000000, A.D. 2286-Jul-29 00:00:00.0000, -2.955908037166554E-01,  6.546410537237565E-01,  2.645552798081838E-02, -1.850022985452561E-02, -8.434879473375460E-03,  9.414428795587516E-04,  4.151262941206740E-03,  7.187688970894277E-01, -3.953176954909789E-05,
2556243.500000000, A.D. 2286-Aug-28 00:00:00.0000, -6.867109493141775E-01,  2.096291238498691E-01,  4.250304665502386E-02, -6.001792039828800E-03, -1.943478235333745E-02,  6.398891207324660E-05,  4.154050569239232E-03,  7.192515599211460E-01,  6.968304112517922E-05,
2556273.500000000, A.D. 2286-Sep-27 00:00:00.0000, -6.155085771947513E-01, -3.770984608781022E-01,  2.992721976142467E-02,  1.042729698718589E-02, -1.733867417331179E-02, -8.500503176262533E-04,  4.172585948860428E-03,  7.224608614171354E-01,  1.312970352510711E-04,
2556303.500000000, A.D. 2286-Oct-27 00:00:00.0000, -1.341169830383072E-01, -7.137365827777356E-01, -2.610422258234866E-03,  1.974516183495762E-02, -3.813172307958112E-03, -1.190084210385940E-03,  4.194370886044514E-03,  7.262328063637054E-01,  1.054009944996938E-04,
2556333.500000000, A.D. 2286-Nov-26 00:00:00.0000,  4.361038185239172E-01, -5.820647651887516E-01, -3.348292893970501E-02,  1.605556066613793E-02,  1.205875770996755E-02, -7.485221596388706E-04,  4.205065371807839E-03,  7.280844991728361E-01,  1.095484715701783E-05,
2556363.500000000, A.D. 2286-Dec-26 00:00:00.0000,  7.220989602620036E-01, -7.090150739672173E-02, -4.253127891057525E-02,  1.887055395873054E-03,  2.003935520066979E-02,  1.812708592980111E-04,  4.197744471480387E-03,  7.268169245747950E-01, -9.065478653073117E-05,
2556393.500000000, A.D. 2287-Jan-25 00:00:00.0000,  5.350917138785775E-01,  4.859997639878393E-01, -2.373017613137208E-02, -1.365813479941865E-02,  1.488776633869968E-02,  1.000322388829905E-03,  4.177109581339518E-03,  7.232441041010806E-01, -1.336224619302296E-04,
2556423.500000000, A.D. 2287-Feb-24 00:00:00.0000, -6.311806998769850E-03,  7.196004822096318E-01,  1.076710988779657E-02, -2.029241595356493E-02, -2.832137536368920E-04,  1.162307934153685E-03,  4.156690833091693E-03,  7.197087074360433E-01, -8.781920066317010E-05,
2556453.500000000, A.D. 2287-Mar-26 00:00:00.0000, -5.427698679697160E-01,  4.693914892173540E-01,  3.798485325766681E-02, -1.330452954507549E-02, -1.540102506660506E-02,  5.420593597402352E-04,  4.150224737486020E-03,  7.185891376875626E-01,  1.778164692282912E-05,
2556483.500000000, A.D. 2287-Apr-25 00:00:00.0000, -7.128822829498129E-01, -9.782555637757875E-02,  3.956150493863580E-02,  2.624897781601819E-03, -2.012600018347573E-02, -4.418812122338962E-04,  4.162125999241118E-03,  7.206497772825089E-01,  1.111671151659481E-04,
2556513.500000000, A.D. 2287-May-25 00:00:00.0000, -4.052374978721909E-01, -6.003806251213291E-01,  1.461157592796810E-02,  1.662639412359557E-02, -1.140610050512001E-02, -1.120610197848095E-03,  4.184313497906655E-03,  7.244914235889136E-01,  1.297317181765742E-04,
2556543.500000000, A.D. 2287-Jun-24 00:00:00.0000,  1.709345963555411E-01, -7.069140067632412E-01, -2.004714533762123E-02,  1.952607620701022E-02,  4.686398682020827E-03, -1.054588535686321E-03,  4.202053516236806E-03,  7.275630125463219E-01,  6.314583631871864E-05,
2556573.500000000, A.D. 2287-Jul-24 00:00:00.0000,  6.359314650783763E-01, -3.516235087348895E-01, -4.163743779518884E-02,  9.670795775324148E-03,  1.761789532298225E-02, -3.011136121095728E-04,  4.203774393812283E-03,  7.278609732620051E-01, -4.446624563041681E-05,
2556603.500000000, A.D. 2287-Aug-23 00:00:00.0000,  6.858638495696867E-01,  2.327737414498091E-01, -3.605695671100045E-02, -6.566698470181809E-03,  1.906447575463615E-02,  6.531295549937274E-04,  4.188317886392171E-03,  7.251847619623232E-01, -1.236948296938732E-04,
2556633.500000000, A.D. 2287-Sep-22 00:00:00.0000,  2.841929191266714E-01,  6.628834902319389E-01, -6.749608858671197E-03, -1.865431447689019E-02,  7.876853136561031E-03,  1.186139414465541E-03,  4.165689214239013E-03,  7.212667288344590E-01, -1.219994765709861E-04,
2556663.500000000, A.D. 2287-Oct-22 00:00:00.0000, -3.065678747012593E-01,  6.494819944236252E-01,  2.701304401821939E-02, -1.835767948370009E-02, -8.746018990389457E-03,  9.287104735799818E-04,  4.150908167896237E-03,  7.187074699948981E-01, -3.815151173730821E-05,
2556693.500000000, A.D. 2287-Nov-21 00:00:00.0000, -6.901702980287071E-01,  1.979203639584938E-01,  4.253226469425078E-02, -5.673808332471620E-03, -1.953324963275327E-02,  4.365973004139325E-05,  4.154025266309960E-03,  7.192471788547514E-01,  7.191277197640799E-05,
2556723.500000000, A.D. 2287-Dec-21 00:00:00.0000, -6.091108623977225E-01, -3.874933505303315E-01,  2.940751492976014E-02,  1.071647397934286E-02, -1.715885173627479E-02, -8.641027494056643E-04,  4.172914678839976E-03,  7.225177792486934E-01,  1.328813371456041E-04,
2556753.500000000, A.D. 2288-Jan-20 00:00:00.0000, -1.221837098931983E-01, -7.159529027851226E-01, -3.330314943526631E-03,  1.980425642816960E-02, -3.480952084928089E-03, -1.188662940483323E-03,  4.194825835580677E-03,  7.263115784340296E-01,  1.051874316921082E-04,
2556783.500000000, A.D. 2288-Feb-19 00:00:00.0000,  4.457187444748116E-01, -5.747681685175455E-01, -3.393099271605680E-02,  1.585178397733822E-02,  1.232429830360485E-02, -7.329191061083327E-04,  4.205334754478776E-03,  7.281311413364444E-01,  9.190048755242897E-06,
2556813.500000000, A.D. 2288-Mar-20 00:00:00.0000,  7.231684960720021E-01, -5.891932853015035E-02, -4.241872637717484E-02,  1.553725588094551E-03,  2.006823260842161E-02,  2.009028201394567E-04,  4.197667659621054E-03,  7.268036250136255E-01, -9.262947055166631E-05,
2556843.500000000, A.D. 2288-Apr-19 00:00:00.0000,  5.269059845417008E-01,  4.948058281338830E-01, -2.313030736614895E-02, -1.390562945715493E-02,  1.465846593354731E-02,  1.011256464499012E-03,  4.176772980294624E-03,  7.231858234368048E-01, -1.344822783731871E-04,
2556873.500000000, A.D. 2288-May-19 00:00:00.0000, -1.837552523875303E-02,  7.193222612473041E-01,  1.145853463442333E-02, -2.028682156813654E-02, -6.238394664793483E-04,  1.157037494033383E-03,  4.156341137368982E-03,  7.196481594985867E-01, -8.712960481806047E-05,
2556903.500000000, A.D. 2288-Jun-18 00:00:00.0000, -5.506026747042652E-01,  4.601177786777465E-01,  3.830173910480654E-02, -1.304472607071413E-02, -1.562316151911229E-02,  5.238574937065373E-04,  4.150097545475739E-03,  7.185671150736632E-01,  1.952683887109510E-05,
2556933.500000000, A.D. 2288-Jul-18 00:00:00.0000, -7.111743801948244E-01, -1.098712327832744E-01,  3.928820832651279E-02,  2.962034404285111E-03, -2.007776139553740E-02, -4.606116183925919E-04,  4.162318934147338E-03,  7.206831829259764E-01,  1.128773519060389E-04,
2556963.500000000, A.D. 2288-Aug-17 00:00:00.0000, -3.951765039022934E-01, -6.071430677881506E-01,  1.393371826372568E-02,  1.681336416164765E-02, -1.112430050394647E-02, -1.127283334425957E-03,  4.184686162703762E-03,  7.245559484983192E-01,  1.298563879532205E-04,
